{
  "type": "FeatureCollection",
  "features": [
    {
      "type": "Feature",
      "properties": {
        "norad_id": 33986,
        "name": "COSMOS 2251 DEB",
        "group": "cosmos-2251-debris",
        "lat": -2.9761345542320607,
        "lon": 100.20963265859997,
        "alt_km": 779.1956529770096,
        "timestamp": "2025-12-25T07:00:34.441495+00:00",
        "meta_object_name": "COSMOS 2251 DEB",
        "meta_object_id": "1993-036FV",
        "meta_epoch": "2025-12-24T20:26:35.700576",
        "meta_mean_motion": 14.43260292,
        "meta_eccentricity": 0.00410855,
        "meta_inclination": 74.0366,
        "meta_ra_of_asc_node": 280.1744,
        "meta_arg_of_pericenter": 350.3243,
        "meta_mean_anomaly": 66.1991,
        "meta_ephemeris_type": 0,
        "meta_classification_type": "U",
        "meta_norad_cat_id": 33986,
        "meta_element_set_no": 999,
        "meta_rev_at_epoch": 88203,
        "meta_bstar": 0.00070852763,
        "meta_mean_motion_dot": 2.383e-05,
        "meta_mean_motion_ddot": 0,
        "tle_line1": "1 33986U 93036FV  25358.85180209  .00002383  00000+0  70853-3 0  9997",
        "tle_line2": "2 33986  74.0366 280.1744 0041085 350.3243  66.1991 14.43260292882037"
      },
      "geometry": {
        "type": "Point",
        "coordinates": [
          100.20963265859997,
          -2.9761345542320607
        ]
      }
    },
    {
      "type": "Feature",
      "properties": {
        "norad_id": 33990,
        "name": "COSMOS 2251 DEB",
        "group": "cosmos-2251-debris",
        "lat": -10.319511956131105,
        "lon": -97.16629357972454,
        "alt_km": 939.9250434480118,
        "timestamp": "2025-12-25T07:00:34.441506+00:00",
        "meta_object_name": "COSMOS 2251 DEB",
        "meta_object_id": "1993-036FZ",
        "meta_epoch": "2025-12-24T20:43:39.511200",
        "meta_mean_motion": 13.50014361,
        "meta_eccentricity": 0.04073156,
        "meta_inclination": 73.9283,
        "meta_ra_of_asc_node": 266.53,
        "meta_arg_of_pericenter": 284.6565,
        "meta_mean_anomaly": 139.1733,
        "meta_ephemeris_type": 0,
        "meta_classification_type": "U",
        "meta_norad_cat_id": 33990,
        "meta_element_set_no": 999,
        "meta_rev_at_epoch": 82893,
        "meta_bstar": 0.00073632659,
        "meta_mean_motion_dot": 7.6e-06,
        "meta_mean_motion_ddot": 0,
        "tle_line1": "1 33990U 93036FZ  25358.86365175  .00000760  00000+0  73633-3 0  9996",
        "tle_line2": "2 33990  73.9283 266.5300 0407315 284.6565 139.1733 13.50014361828937"
      },
      "geometry": {
        "type": "Point",
        "coordinates": [
          -97.16629357972454,
          -10.319511956131105
        ]
      }
    },
    {
      "type": "Feature",
      "properties": {
        "norad_id": 33992,
        "name": "COSMOS 2251 DEB",
        "group": "cosmos-2251-debris",
        "lat": -2.512949160539006,
        "lon": -47.196409865424265,
        "alt_km": 663.1735762332455,
        "timestamp": "2025-12-25T07:00:34.441517+00:00",
        "meta_object_name": "COSMOS 2251 DEB",
        "meta_object_id": "1993-036GB",
        "meta_epoch": "2025-12-24T21:29:24.363168",
        "meta_mean_motion": 14.66311116,
        "meta_eccentricity": 0.00518902,
        "meta_inclination": 74.0248,
        "meta_ra_of_asc_node": 314.2887,
        "meta_arg_of_pericenter": 68.4203,
        "meta_mean_anomaly": 356.7286,
        "meta_ephemeris_type": 0,
        "meta_classification_type": "U",
        "meta_norad_cat_id": 33992,
        "meta_element_set_no": 999,
        "meta_rev_at_epoch": 89303,
        "meta_bstar": 0.00089576933,
        "meta_mean_motion_dot": 5.015e-05,
        "meta_mean_motion_ddot": 0,
        "tle_line1": "1 33992U 93036GB  25358.89542087  .00005015  00000+0  89577-3 0  9992",
        "tle_line2": "2 33992  74.0248 314.2887 0051890  68.4203 356.7286 14.66311116893032"
      },
      "geometry": {
        "type": "Point",
        "coordinates": [
          -47.196409865424265,
          -2.512949160539006
        ]
      }
    },
    {
      "type": "Feature",
      "properties": {
        "norad_id": 33994,
        "name": "COSMOS 2251 DEB",
        "group": "cosmos-2251-debris",
        "lat": -38.018957373214974,
        "lon": 0.10848589862421132,
        "alt_km": 757.393270436447,
        "timestamp": "2025-12-25T07:00:34.441527+00:00",
        "meta_object_name": "COSMOS 2251 DEB",
        "meta_object_id": "1993-036GD",
        "meta_epoch": "2025-12-24T22:11:28.248000",
        "meta_mean_motion": 14.41222043,
        "meta_eccentricity": 0.00240134,
        "meta_inclination": 74.0415,
        "meta_ra_of_asc_node": 167.8609,
        "meta_arg_of_pericenter": 300.1326,
        "meta_mean_anomaly": 174.2657,
        "meta_ephemeris_type": 0,
        "meta_classification_type": "U",
        "meta_norad_cat_id": 33994,
        "meta_element_set_no": 999,
        "meta_rev_at_epoch": 88595,
        "meta_bstar": 0.00010035374,
        "meta_mean_motion_dot": 2.98e-06,
        "meta_mean_motion_ddot": 0,
        "tle_line1": "1 33994U 93036GD  25358.92463250  .00000298  00000+0  10035-3 0  9993",
        "tle_line2": "2 33994  74.0415 167.8609 0024013 300.1326 174.2657 14.41222043885953"
      },
      "geometry": {
        "type": "Point",
        "coordinates": [
          0.10848589862421132,
          -38.018957373214974
        ]
      }
    },
    {
      "type": "Feature",
      "properties": {
        "norad_id": 33995,
        "name": "COSMOS 2251 DEB",
        "group": "cosmos-2251-debris",
        "lat": 5.372257329232478,
        "lon": 97.92804714861792,
        "alt_km": 785.7526162363638,
        "timestamp": "2025-12-25T07:00:34.441537+00:00",
        "meta_object_name": "COSMOS 2251 DEB",
        "meta_object_id": "1993-036GE",
        "meta_epoch": "2025-12-24T17:35:48.265728",
        "meta_mean_motion": 14.34828474,
        "meta_eccentricity": 0.00593083,
        "meta_inclination": 74.0615,
        "meta_ra_of_asc_node": 97.4102,
        "meta_arg_of_pericenter": 108.3943,
        "meta_mean_anomaly": 252.3671,
        "meta_ephemeris_type": 0,
        "meta_classification_type": "U",
        "meta_norad_cat_id": 33995,
        "meta_element_set_no": 999,
        "meta_rev_at_epoch": 87691,
        "meta_bstar": 0.00082357332,
        "meta_mean_motion_dot": 2.36e-05,
        "meta_mean_motion_ddot": 0,
        "tle_line1": "1 33995U 93036GE  25358.73319752  .00002360  00000+0  82357-3 0  9998",
        "tle_line2": "2 33995  74.0615  97.4102 0059308 108.3943 252.3671 14.34828474876912"
      },
      "geometry": {
        "type": "Point",
        "coordinates": [
          97.92804714861792,
          5.372257329232478
        ]
      }
    },
    {
      "type": "Feature",
      "properties": {
        "norad_id": 33999,
        "name": "COSMOS 2251 DEB",
        "group": "cosmos-2251-debris",
        "lat": -21.888998271383343,
        "lon": 32.395092146727954,
        "alt_km": 631.0534175873418,
        "timestamp": "2025-12-25T07:00:34.441548+00:00",
        "meta_object_name": "COSMOS 2251 DEB",
        "meta_object_id": "1993-036GJ",
        "meta_epoch": "2025-12-24T15:32:16.589472",
        "meta_mean_motion": 14.83586221,
        "meta_eccentricity": 0.00444399,
        "meta_inclination": 73.9173,
        "meta_ra_of_asc_node": 207.0245,
        "meta_arg_of_pericenter": 98.8925,
        "meta_mean_anomaly": 261.7288,
        "meta_ephemeris_type": 0,
        "meta_classification_type": "U",
        "meta_norad_cat_id": 33999,
        "meta_element_set_no": 999,
        "meta_rev_at_epoch": 89427,
        "meta_bstar": 0.0012174014,
        "meta_mean_motion_dot": 0.00010191,
        "meta_mean_motion_ddot": 0,
        "tle_line1": "1 33999U 93036GJ  25358.64741423  .00010191  00000+0  12174-2 0  9996",
        "tle_line2": "2 33999  73.9173 207.0245 0044439  98.8925 261.7288 14.83586221894274"
      },
      "geometry": {
        "type": "Point",
        "coordinates": [
          32.395092146727954,
          -21.888998271383343
        ]
      }
    },
    {
      "type": "Feature",
      "properties": {
        "norad_id": 34001,
        "name": "COSMOS 2251 DEB",
        "group": "cosmos-2251-debris",
        "lat": -73.27862248452436,
        "lon": 150.8087551966959,
        "alt_km": 770.4710258546256,
        "timestamp": "2025-12-25T07:00:34.441558+00:00",
        "meta_object_name": "COSMOS 2251 DEB",
        "meta_object_id": "1993-036GL",
        "meta_epoch": "2025-12-24T05:27:26.163360",
        "meta_mean_motion": 14.37111271,
        "meta_eccentricity": 0.00204339,
        "meta_inclination": 74.0386,
        "meta_ra_of_asc_node": 260.4645,
        "meta_arg_of_pericenter": 339.1766,
        "meta_mean_anomaly": 180.0079,
        "meta_ephemeris_type": 0,
        "meta_classification_type": "U",
        "meta_norad_cat_id": 34001,
        "meta_element_set_no": 999,
        "meta_rev_at_epoch": 88311,
        "meta_bstar": 0.00017425347,
        "meta_mean_motion_dot": 4.93e-06,
        "meta_mean_motion_ddot": 0,
        "tle_line1": "1 34001U 93036GL  25358.22738615  .00000493  00000+0  17425-3 0  9993",
        "tle_line2": "2 34001  74.0386 260.4645 0020433 339.1766 180.0079 14.37111271883116"
      },
      "geometry": {
        "type": "Point",
        "coordinates": [
          150.8087551966959,
          -73.27862248452436
        ]
      }
    }
  ]
}